NORAD_CAT_ID,OBJECT_NAME,OBJECT_TYPE,EPOCH,MEAN_MOTION,ECCENTRICITY,INCLINATION,RA_OF_ASC_NODE,ARG_OF_PERICENTER,MEAN_ANOMALY,BSTAR,MEAN_MOTION_DOT,MEAN_MOTION_DDOT,TLE_LINE0,TLE_LINE1,TLE_LINE2,SEMIMAJOR_AXIS,PERIOD,APOGEE,PERIGEE,DECAYED
53528.0,STARLINK-4503,PAYLOAD,2023-11-11 21:54:46,15.08833156,0.0001498,53.2172,284.428,97.926,262.1902,0.00052832,8.129e-05,0.0,0 STARLINK-4503,1 53528U 22101B   23315.91303780  .00008129  00000-0  52832-3 0  9997,2 53528  53.2172 284.4280 0001498  97.9260 262.1902 15.08833156 68026,6917.901,95.438,540.803,538.73,0.0
53528.0,STARLINK-4503,PAYLOAD,2023-11-12 04:16:19,15.08822029,0.0001521,53.2177,283.235,95.8239,264.2926,0.00012418,1.688e-05,0.0,0 STARLINK-4503,1 53528U 22101B   23316.17800341  .00001688  00000-0  12418-3 0  9990,2 53528  53.2177 283.2350 0001521  95.8239 264.2926 15.08822029 68066,6917.935,95.439,540.853,538.748,0.0
53528.0,STARLINK-4503,PAYLOAD,2023-11-12 21:45:34,15.08832679,0.00015,53.2186,279.9651,92.315,267.8014,0.00035625,5.385e-05,0.0,0 STARLINK-4503,1 53528U 22101B   23316.90665002  .00005385  00000-0  35625-3 0  9997,2 53528  53.2186 279.9651 0001500  92.3150 267.8014 15.08832679 68174,6917.903,95.438,540.805,538.73,0.0
53528.0,STARLINK-4503,PAYLOAD,2023-11-13 04:07:06,15.08851402,0.0001568,53.2168,278.779,85.9436,274.1736,0.00092838,0.00014523,0.0,0 STARLINK-4503,1 53528U 22101B   23317.17160778  .00014523  00000-0  92838-3 0  9990,2 53528  53.2168 278.7790 0001568  85.9436 274.1736 15.08851402 68216,6917.846,95.437,540.795,538.626,0.0
53528.0,STARLINK-4503,PAYLOAD,2023-11-13 07:17:52,15.08863615,0.0001614,53.217,278.1828,91.1271,268.9907,0.0013811,0.00021775,0.0,0 STARLINK-4503,1 53528U 22101B   23317.30408548  .00021775  00000-0  13811-2 0  9995,2 53528  53.2170 278.1828 0001614  91.1271 268.9907 15.08863615 68235,6917.808,95.436,540.79,538.557,0.0
53528.0,STARLINK-4503,PAYLOAD,2023-11-14 03:57:53,15.08854519,0.0001875,53.2178,274.3149,100.1257,259.9946,0.00039112,5.945e-05,0.0,0 STARLINK-4503,1 53528U 22101B   23318.16520013  .00005945  00000-0  39112-3 0  9996,2 53528  53.2178 274.3149 0001875 100.1257 259.9946 15.08854519 68361,6917.836,95.437,540.998,538.404,0.0
53528.0,STARLINK-4503,PAYLOAD,2023-11-14 21:27:07,15.08848584,0.0002019,53.2194,271.0429,86.738,273.3843,5.1945e-05,5.39e-06,0.0,0 STARLINK-4503,1 53528U 22101B   23318.89383843  .00000539  00000-0  51945-4 0  9997,2 53528  53.2194 271.0429 0002019  86.7380 273.3843 15.08848584 68474,6917.854,95.437,541.116,538.322,0.0
53528.0,STARLINK-4503,PAYLOAD,2023-11-15 02:13:17,15.08847457,0.0002038,53.2187,270.1505,92.9986,267.124,-4.3036e-06,-3.57e-06,0.0,0 STARLINK-4503,1 53528U 22101B   23319.09255797 -.00000357  00000-0 -43036-5 0  9999,2 53528  53.2187 270.1505 0002038  92.9986 267.1240 15.08847457 68507,6917.858,95.437,541.132,538.313,0.0
53528.0,STARLINK-4503,PAYLOAD,2023-11-15 06:59:26,15.0884824,0.000203,53.2191,269.2587,96.9059,263.2164,-9.4349e-05,-1.79e-05,0.0,0 STARLINK-4503,1 53528U 22101B   23319.29127581 -.00001790  00000-0 -94349-4 0  9994,2 53528  53.2191 269.2587 0002030  96.9059 263.2164 15.08848240 68534,6917.855,95.437,541.125,538.316,0.0
53528.0,STARLINK-4503,PAYLOAD,2023-11-16 00:28:40,15.08846799,0.000186,53.2185,265.9879,106.679,253.4406,-6.5e-05,-1.323e-05,0.0,0 STARLINK-4503,1 53528U 22101B   23320.01991894 -.00001323  00000-0 -65000-4 0  9996,2 53528  53.2185 265.9879 0001860 106.6790 253.4406 15.08846799 68644,6917.86,95.437,541.011,538.438,0.0
53528.0,STARLINK-4503,PAYLOAD,2023-11-16 21:08:41,15.08838759,0.0001842,53.2183,262.122,101.9182,258.2017,6.2388e-05,7.05e-06,0.0,0 STARLINK-4503,1 53528U 22101B   23320.88104009  .00000705  00000-0  62388-4 0  9992,2 53528  53.2183 262.1220 0001842 101.9182 258.2017 15.08838759 68776,6917.884,95.438,541.023,538.475,0.0
53528.0,STARLINK-4503,PAYLOAD,2023-11-17 03:30:14,15.08842094,0.0001759,53.2184,260.9377,98.3838,261.7354,3.8307e-05,3.22e-06,0.0,0 STARLINK-4503,1 53528U 22101B   23321.14599942  .00000322  00000-0  38307-4 0  9995,2 53528  53.2184 260.9377 0001759  98.3838 261.7354 15.08842094 68815,6917.874,95.437,540.956,538.522,0.0
53528.0,STARLINK-4503,PAYLOAD,2023-11-17 13:02:32,15.08852885,0.0001625,53.2189,259.1533,90.8725,269.2453,-0.000171,-3.009e-05,0.0,0 STARLINK-4503,1 53528U 22101B   23321.54343629 -.00003009  00000-0 -17100-3 0  9992,2 53528  53.2189 259.1533 0001625  90.8725 269.2453 15.08852885 68876,6917.841,95.437,540.83,538.582,0.0
53528.0,STARLINK-4503,PAYLOAD,2023-11-18 01:45:39,15.08814978,0.0001804,53.2182,256.7749,83.0364,277.0833,0.00033489,5.042e-05,0.0,0 STARLINK-4503,1 53528U 22101B   23322.07337016  .00005042  00000-0  33489-3 0  9999,2 53528  53.2182 256.7749 0001804  83.0364 277.0833 15.08814978 68952,6917.957,95.439,541.07,538.574,0.0
53528.0,STARLINK-4503,PAYLOAD,2023-11-18 12:53:20,15.08841939,0.0001782,53.2182,254.6935,85.9232,274.1964,6.9001e-05,8.1e-06,0.0,0 STARLINK-4503,1 53528U 22101B   23322.53704287  .00000810  00000-0  69001-4 0  9996,2 53528  53.2182 254.6935 0001782  85.9232 274.1964 15.08841939 69025,6917.874,95.437,540.972,538.507,0.0
53528.0,STARLINK-4503,PAYLOAD,2023-11-18 19:14:52,15.08843963,0.0001759,53.2182,253.5037,86.2298,273.8895,7.945e-05,9.77e-06,0.0,0 STARLINK-4503,1 53528U 22101B   23322.80200084  .00000977  00000-0  79450-4 0  9995,2 53528  53.2182 253.5037 0001759  86.2298 273.8895 15.08843963 69068,6917.868,95.437,540.95,538.516,0.0
53528.0,STARLINK-4503,PAYLOAD,2023-11-19 12:44:07,15.08842872,0.0001903,53.219,250.2338,79.9695,280.1512,9.1527e-05,1.169e-05,0.0,0 STARLINK-4503,1 53528U 22101B   23323.53064016  .00001169  00000-0  91527-4 0  9992,2 53528  53.2190 250.2338 0001903  79.9695 280.1512 15.08842872 69173,6917.872,95.437,541.053,538.42,0.0
53528.0,STARLINK-4503,PAYLOAD,2023-11-20 01:27:12,15.08843595,0.0001687,53.2178,247.8529,87.7642,272.3543,6.6658e-05,7.73e-06,0.0,0 STARLINK-4503,1 53528U 22101B   23324.06055837  .00000773  00000-0  66658-4 0  9999,2 53528  53.2178 247.8529 0001687  87.7642 272.3543 15.08843595 69250,6917.869,95.437,540.901,538.567,0.0
53528.0,STARLINK-4503,PAYLOAD,2023-11-20 12:34:54,15.0884287,0.0001729,53.2182,245.7712,88.2793,271.8397,5.0113e-05,5.1e-06,0.0,0 STARLINK-4503,1 53528U 22101B   23324.52423843  .00000510  00000-0  50113-4 0  9994,2 53528  53.2182 245.7712 0001729  88.2793 271.8397 15.08842870 69320,6917.872,95.437,540.933,538.541,0.0
53528.0,STARLINK-4503,PAYLOAD,2023-11-20 22:07:12,15.08845757,0.0001756,53.2179,243.9871,87.8462,272.2731,3.9132e-05,3.35e-06,0.0,0 STARLINK-4503,1 53528U 22101B   23324.92167545  .00000335  00000-0  39132-4 0  9995,2 53528  53.2179 243.9871 0001756  87.8462 272.2731 15.08845757 69380,6917.863,95.437,540.943,538.513,0.0
53528.0,STARLINK-4503,PAYLOAD,2023-11-21 04:28:44,15.08855852,0.0001746,53.2186,242.7965,100.4693,259.6496,7.8307e-05,9.59e-06,0.0,0 STARLINK-4503,1 53528U 22101B   23325.18662678  .00000959  00000-0  78307-4 0  9990,2 53528  53.2186 242.7965 0001746 100.4693 259.6496 15.08855852 69425,6917.832,95.437,540.905,538.489,0.0
53528.0,STARLINK-4503,PAYLOAD,2023-11-21 18:47:14,15.08835317,0.0001692,53.2174,240.1203,94.8922,265.2263,-1.056e-05,-4.56e-06,0.0,0 STARLINK-4503,1 53528U 22101B   23325.78280228 -.00000456  00000-0 -10560-4 0  9994,2 53528  53.2174 240.1203 0001692  94.8922 265.2263 15.08835317 69519,6917.895,95.438,540.93,538.589,0.0
53528.0,STARLINK-4503,PAYLOAD,2023-11-22 01:08:46,15.08844405,0.0001697,53.2178,238.9322,96.3895,263.7291,6.8626e-06,-1.79e-06,0.0,0 STARLINK-4503,1 53528U 22101B   23326.04775679 -.00000179  00000-0  68626-5 0  9991,2 53528  53.2178 238.9322 0001697  96.3895 263.7291 15.08844405 69557,6917.867,95.437,540.906,538.558,0.0
53528.0,STARLINK-4503,PAYLOAD,2023-11-22 21:48:46,15.08846593,0.0001727,53.2177,235.0667,103.1443,256.9742,7.3333e-05,8.79e-06,0.0,0 STARLINK-4503,1 53528U 22101B   23326.90887312  .00000879  00000-0  73333-4 0  9990,2 53528  53.2177 235.0667 0001727 103.1443 256.9742 15.08846593 69685,6917.86,95.437,540.92,538.531,0.0
53528.0,STARLINK-4503,PAYLOAD,2023-11-22 23:24:09,15.08847379,0.0001707,53.2166,234.768,102.1981,257.9202,0.00010769,1.427e-05,0.0,0 STARLINK-4503,1 53528U 22101B   23326.97511223  .00001427  00000-0  10769-3 0  9995,2 53528  53.2166 234.7680 0001707 102.1981 257.9202 15.08847379 69694,6917.858,95.437,540.904,538.542,0.0
53528.0,STARLINK-4503,PAYLOAD,2023-11-23 18:28:48,15.08831929,0.000176,53.2172,231.1994,111.1948,248.9232,-3.4769e-05,-8.41e-06,0.0,0 STARLINK-4503,1 53528U 22101B   23327.77000283 -.00000841  00000-0 -34769-4 0  9991,2 53528  53.2172 231.1994 0001760 111.1948 248.9232 15.08831929 69813,6917.905,95.438,540.988,538.553,0.0
53528.0,STARLINK-4503,PAYLOAD,2023-11-23 21:39:34,15.08830278,0.0001719,53.2168,230.6044,115.3284,244.7887,-6.1543e-05,-1.267e-05,0.0,0 STARLINK-4503,1 53528U 22101B   23327.90248387 -.00001267  00000-0 -61543-4 0  9998,2 53528  53.2168 230.6044 0001719 115.3284 244.7887 15.08830278 69839,6917.91,95.438,540.964,538.586,0.0
53528.0,STARLINK-4503,PAYLOAD,2023-11-24 04:01:07,15.08830293,0.0001604,53.2163,229.4147,112.4058,247.7105,-5.3219e-05,-1.135e-05,0.0,0 STARLINK-4503,1 53528U 22101B   23328.16744547 -.00001135  00000-0 -53219-4 0  9991,2 53528  53.2163 229.4147 0001604 112.4058 247.7105 15.08830293 69871,6917.91,95.438,540.885,538.665,0.0
53528.0,STARLINK-4503,PAYLOAD,2023-11-24 21:30:21,15.08839017,0.0001442,53.2165,226.1442,109.3595,250.7554,-0.00013754,-2.476e-05,0.0,0 STARLINK-4503,1 53528U 22101B   23328.89608585 -.00002476  00000-0 -13754-3 0  9990,2 53528  53.2165 226.1442 0001442 109.3595 250.7554 15.08839017 69983,6917.883,95.438,540.746,538.751,0.0
53528.0,STARLINK-4503,PAYLOAD,2023-11-25 02:16:32,15.08818609,0.0001915,53.2169,225.2521,114.7113,245.4078,0.00086686,0.00013527,0.0,0 STARLINK-4503,1 53528U 22101B   23329.09481865  .00013527  00000-0  86686-3 0  9994,2 53528  53.2169 225.2521 0001915 114.7113 245.4078 15.08818609 70018,6917.946,95.439,541.136,538.486,0.0
